NORAD_CAT_ID,OBJECT_NAME,OBJECT_TYPE,EPOCH,MEAN_MOTION,ECCENTRICITY,INCLINATION,RA_OF_ASC_NODE,ARG_OF_PERICENTER,MEAN_ANOMALY,BSTAR,MEAN_MOTION_DOT,MEAN_MOTION_DDOT,TLE_LINE0,TLE_LINE1,TLE_LINE2,SEMIMAJOR_AXIS,PERIOD,APOGEE,PERIGEE,DECAYED
56816.0,STARLINK-6067,PAYLOAD,2024-01-30 12:23:33,14.98322599,0.0002594,70.0007,103.6227,255.4025,104.6847,-8.1475e-05,-1.065e-05,0.0,0 STARLINK-6067,1 56816U 23078BB  24030.51635460 -.00001065  00000-0 -81475-4 0  9998,2 56816  70.0007 103.6227 0002594 255.4025 104.6847 14.98322599 38223,6950.216,96.107,573.884,570.278,0.0
56816.0,STARLINK-6067,PAYLOAD,2024-01-30 13:59:41,14.98322738,0.0002591,70.0007,103.4544,255.8131,104.2741,-7.9354e-05,-1.039e-05,0.0,0 STARLINK-6067,1 56816U 23078BB  24030.58311470 -.00001039  00000-0 -79354-4 0  9991,2 56816  70.0007 103.4544 0002591 255.8131 104.2741 14.98322738 37977,6950.215,96.107,573.881,570.28,0.0
56816.0,STARLINK-6067,PAYLOAD,2024-01-31 12:25:33,14.98333421,0.0002678,70.0005,101.0978,254.8884,105.1979,-3.5346e-05,-5.15e-06,0.0,0 STARLINK-6067,1 56816U 23078BB  24031.51774594 -.00000515  00000-0 -35346-4 0  9996,2 56816  70.0005 101.0978 0002678 254.8884 105.1979 14.98333421 38379,6950.182,96.107,573.909,570.186,0.0
56816.0,STARLINK-6067,PAYLOAD,2024-01-31 14:01:41,14.98332218,0.0002704,70.0004,100.9293,257.9911,102.0945,-5.2227e-05,-7.16e-06,0.0,0 STARLINK-6067,1 56816U 23078BB  24031.58450725 -.00000716  00000-0 -52227-4 0  9990,2 56816  70.0004 100.9293 0002704 257.9911 102.0945 14.98332218 38126,6950.186,96.107,573.93,570.172,0.0
56816.0,STARLINK-6067,PAYLOAD,2024-02-01 10:51:26,14.98324054,0.0002835,70.0002,98.7421,257.7114,102.3728,3.2877e-05,2.99e-06,0.0,0 STARLINK-6067,1 56816U 23078BB  24032.45239059  .00000299  00000-0  32877-4 0  9995,2 56816  70.0002  98.7421 0002835 257.7114 102.3728 14.98324054 38513,6950.211,96.107,574.047,570.106,0.0
56816.0,STARLINK-6067,PAYLOAD,2024-02-01 12:27:34,14.98324561,0.0002825,70.0002,98.5738,257.3504,102.7339,3.7942e-05,3.6e-06,0.0,0 STARLINK-6067,1 56816U 23078BB  24032.51915033  .00000360  00000-0  37942-4 0  9992,2 56816  70.0002  98.5738 0002825 257.3504 102.7339 14.98324561 38267,6950.21,96.107,574.038,570.111,0.0
56816.0,STARLINK-6067,PAYLOAD,2024-02-02 10:53:27,14.98328902,0.0002769,70.0002,96.2175,257.0593,103.0257,-3.1212e-06,-1.3e-06,0.0,0 STARLINK-6067,1 56816U 23078BB  24033.45378975 -.00000130  00000-0 -31212-5 0  9996,2 56816  70.0002  96.2175 0002769 257.0593 103.0257 14.98328902 38669,6950.196,96.107,573.986,570.137,0.0
56816.0,STARLINK-6067,PAYLOAD,2024-02-02 14:05:43,14.98332344,0.0002733,69.9997,95.8782,263.9592,96.1255,-2.4834e-05,-3.89e-06,0.0,0 STARLINK-6067,1 56816U 23078BB  24033.58730852 -.00000389  00000-0 -24834-4 0  9993,2 56816  69.9997  95.8782 0002733 263.9592  96.1255 14.98332344 38423,6950.186,96.107,573.95,570.151,0.0
56816.0,STARLINK-6067,PAYLOAD,2024-02-03 12:31:35,14.98334222,0.0002919,69.9995,93.5218,270.6255,89.4569,7.8213e-05,8.4e-06,0.0,0 STARLINK-6067,1 56816U 23078BB  24034.52194356  .00000840  00000-0  78213-4 0  9991,2 56816  69.9995  93.5218 0002919 270.6255  89.4569 14.98334222 38821,6950.18,96.107,574.074,570.016,0.0
56816.0,STARLINK-6067,PAYLOAD,2024-02-03 14:07:43,14.98335119,0.0002918,69.9995,93.3536,270.6644,89.4181,8.592e-05,9.32e-06,0.0,0 STARLINK-6067,1 56816U 23078BB  24034.58870259  .00000932  00000-0  85920-4 0  9995,2 56816  69.9995  93.3536 0002918 270.6644  89.4181 14.98335119 38571,6950.177,96.107,574.07,570.014,0.0
56816.0,STARLINK-6067,PAYLOAD,2024-02-04 12:33:37,14.98326721,0.0002729,69.9999,90.9969,273.8034,86.2813,-1.0744e-05,-2.21e-06,0.0,0 STARLINK-6067,1 56816U 23078BB  24035.52335067 -.00000221  00000-0 -10744-4 0  9998,2 56816  69.9999  90.9969 0002729 273.8034  86.2813 14.98326721 38976,6950.203,96.107,573.965,570.171,0.0
56816.0,STARLINK-6067,PAYLOAD,2024-02-04 14:09:45,14.9832775,0.0002731,70.0,90.8288,273.7034,86.3812,-8.7301e-07,-1.03e-06,0.0,0 STARLINK-6067,1 56816U 23078BB  24035.59010982 -.00000103  00000-0 -87301-6 0  9995,2 56816  70.0000  90.8288 0002731 273.7034  86.3812 14.98327750 38723,6950.2,96.107,573.963,570.167,0.0
56816.0,STARLINK-6067,PAYLOAD,2024-02-05 12:35:38,14.98331483,0.0002703,70.0,88.4726,265.9559,94.1291,-3.7957e-05,-5.46e-06,0.0,0 STARLINK-6067,1 56816U 23078BB  24036.52474732 -.00000546  00000-0 -37957-4 0  9997,2 56816  70.0000  88.4726 0002703 265.9559  94.1291 14.98331483 38868,6950.188,96.107,573.932,570.175,0.0
56816.0,STARLINK-6067,PAYLOAD,2024-02-06 12:37:38,14.98332711,0.0002876,69.9995,85.9473,267.9026,92.1803,5.5842e-05,5.73e-06,0.0,0 STARLINK-6067,1 56816U 23078BB  24037.52614251  .00000573  00000-0  55842-4 0  9991,2 56816  69.9995  85.9473 0002876 267.9026  92.1803 14.98332711 39011,6950.185,96.107,574.048,570.051,0.0
56816.0,STARLINK-6067,PAYLOAD,2024-02-07 03:02:51,14.98326535,0.0002789,69.9997,84.432,265.8023,94.2817,-2.8338e-05,-4.31e-06,0.0,0 STARLINK-6067,1 56816U 23078BB  24038.12698884 -.00000431  00000-0 -28338-4 0  9997,2 56816  69.9997  84.4320 0002789 265.8023  94.2817 14.98326535 39368,6950.204,96.107,574.007,570.13,0.0
56816.0,STARLINK-6067,PAYLOAD,2024-02-07 12:39:40,14.98328026,0.0002771,69.9996,83.422,265.1918,94.8925,-7.5776e-06,-1.83e-06,0.0,0 STARLINK-6067,1 56816U 23078BB  24038.52754789 -.00000183  00000-0 -75776-5 0  9991,2 56816  69.9996  83.4220 0002771 265.1918  94.8925 14.98328026 39163,6950.199,96.107,573.99,570.138,0.0
56816.0,STARLINK-6067,PAYLOAD,2024-02-07 20:40:20,14.98329065,0.000274,69.9997,82.5794,266.1668,93.9178,-3.123e-05,-4.66e-06,0.0,0 STARLINK-6067,1 56816U 23078BB  24038.86134814 -.00000466  00000-0 -31230-4 0  9999,2 56816  69.9997  82.5794 0002740 266.1668  93.9178 14.98329065 39219,6950.196,96.107,573.965,570.156,0.0
56816.0,STARLINK-6067,PAYLOAD,2024-02-08 01:28:44,14.98333117,0.0002845,69.9993,82.0741,267.272,92.8114,-8.9566e-06,-2e-06,0.0,0 STARLINK-6067,1 56816U 23078BB  24039.06162457 -.00000200  00000-0 -89566-5 0  9998,2 56816  69.9993  82.0741 0002845 267.2720  92.8114 14.98333117 39502,6950.183,96.107,574.026,570.071,0.0
56816.0,STARLINK-6067,PAYLOAD,2024-02-08 12:41:40,14.98335316,0.0002901,69.9994,80.8968,270.7721,89.3106,1.4702e-05,8.2e-07,0.0,0 STARLINK-6067,1 56816U 23078BB  24039.52894156  .00000082  00000-0  14702-4 0  9992,2 56816  69.9994  80.8968 0002901 270.7721  89.3106 14.98335316 39317,6950.176,96.107,574.058,570.025,0.0
56816.0,STARLINK-6067,PAYLOAD,2024-02-09 03:06:53,14.98329106,0.0002904,69.9994,79.3819,271.0773,89.0053,3.5686e-05,3.33e-06,0.0,0 STARLINK-6067,1 56816U 23078BB  24040.12978417  .00000333  00000-0  35686-4 0  9996,2 56816  69.9994  79.3819 0002904 271.0773  89.0053 14.98329106 39665,6950.196,96.107,574.079,570.042,0.0
56816.0,STARLINK-6067,PAYLOAD,2024-02-09 12:43:42,14.98316667,0.0003596,69.9991,78.3719,257.3146,102.7611,-0.00012641,-1.601e-05,0.0,0 STARLINK-6067,1 56816U 23078BB  24040.53035227 -.00001601  00000-0 -12641-3 0  9990,2 56816  69.9991  78.3719 0003596 257.3146 102.7611 14.98316667 39468,6950.234,96.108,574.598,569.6,0.0
56816.0,STARLINK-6067,PAYLOAD,2024-02-10 12:45:44,14.98316748,0.000284,69.9999,75.848,268.7047,91.3787,-0.00013534,-1.707e-05,0.0,0 STARLINK-6067,1 56816U 23078BB  24041.53176386 -.00001707  00000-0 -13534-3 0  9992,2 56816  69.9999  75.8480 0002840 268.7047  91.3787 14.98316748 39614,6950.234,96.108,574.073,570.125,0.0
56816.0,STARLINK-6067,PAYLOAD,2024-02-11 03:10:56,14.98322113,0.0003182,69.9996,74.3308,271.2753,88.8042,-1.3272e-05,-2.51e-06,0.0,0 STARLINK-6067,1 56816U 23078BB  24042.13259899 -.00000251  00000-0 -13272-4 0  9993,2 56816  69.9996  74.3308 0003182 271.2753  88.8042 14.98322113 39963,6950.217,96.108,574.294,569.871,0.0
56816.0,STARLINK-6067,PAYLOAD,2024-02-11 11:11:36,14.98328804,0.0002771,70.0002,73.4918,260.4238,99.6608,2.716e-05,2.31e-06,0.0,0 STARLINK-6067,1 56816U 23078BB  24042.46639481  .00000231  00000-0  27160-4 0  9995,2 56816  70.0002  73.4918 0002771 260.4238  99.6608 14.98328804 40011,6950.197,96.107,573.987,570.136,0.0
56816.0,STARLINK-6067,PAYLOAD,2024-02-11 12:47:44,14.98329537,0.0002704,70.0004,73.3231,259.7681,100.3173,4.2017e-05,4.08e-06,0.0,0 STARLINK-6067,1 56816U 23078BB  24042.53315402  .00000408  00000-0  42017-4 0  9991,2 56816  70.0004  73.3231 0002704 259.7681 100.3173 14.98329537 39760,6950.194,96.107,573.939,570.18,0.0
56816.0,STARLINK-6067,PAYLOAD,2024-02-12 03:12:56,14.98333466,0.0003182,69.9992,71.8073,267.4957,92.5837,0.00024553,2.838e-05,0.0,0 STARLINK-6067,1 56816U 23078BB  24043.13398524  .00002838  00000-0  24553-3 0  9997,2 56816  69.9992  71.8073 0003182 267.4957  92.5837 14.98333466 40119,6950.182,96.107,574.259,569.836,0.0
56816.0,STARLINK-6067,PAYLOAD,2024-02-12 11:13:35,14.98341806,0.0003003,69.9997,70.9665,262.6593,97.4225,0.00029082,3.38e-05,0.0,0 STARLINK-6067,1 56816U 23078BB  24043.46777688  .00003380  00000-0  29082-3 0  9990,2 56816  69.9997  70.9665 0003003 262.6593  97.4225 14.98341806 40163,6950.156,96.106,574.109,569.934,0.0
56816.0,STARLINK-6067,PAYLOAD,2024-02-13 03:14:57,14.98332589,0.0002584,70.0021,69.2851,258.4151,101.6718,4.9207e-05,4.94e-06,0.0,0 STARLINK-6067,1 56816U 23078BB  24044.13538692  .00000494  00000-0  49207-4 0  9990,2 56816  70.0021  69.2851 0002584 258.4151 101.6718 14.98332589 40262,6950.185,96.107,573.846,570.254,0.0
56816.0,STARLINK-6067,PAYLOAD,2024-02-13 11:15:37,14.98332425,0.0003164,69.9995,68.441,269.8424,90.2373,-5.166e-05,-7.09e-06,0.0,0 STARLINK-6067,1 56816U 23078BB  24044.46918866 -.00000709  00000-0 -51660-4 0  9998,2 56816  69.9995  68.4410 0003164 269.8424  90.2373 14.98332425 40051,6950.185,96.107,574.249,569.851,0.0
56816.0,STARLINK-6067,PAYLOAD,2024-02-13 19:16:17,14.98337499,0.0003172,69.9993,67.5988,272.381,87.6986,-0.00010009,-1.287e-05,0.0,0 STARLINK-6067,1 56816U 23078BB  24044.80298564 -.00001287  00000-0 -10009-3 0  9995,2 56816  69.9993  67.5988 0003172 272.3810  87.6986 14.98337499 40108,6950.17,96.107,574.239,569.83,0.0
